{"type": "FeatureCollection", "features": [ {"type": "Feature", "properties": {"norad_id": 32352, "name": "FENGYUN 1C DEB", "group": "fengyun-1c-debris", "lat": -9.745155812202135, "lon": -78.40930637715186, "alt_km": 826.6125794965837, "timestamp": "2025-12-25T16:53:14.949832+00:00", "meta": {"OBJECT_NAME": "FENGYUN 1C DEB", "OBJECT_ID": "1999-025CYV", "EPOCH": "2025-12-25T00:16:27.065568", "MEAN_MOTION": 14.41437454, "ECCENTRICITY": 0.01226682, "INCLINATION": 98.7798, "RA_OF_ASC_NODE": 279.3585, "ARG_OF_PERICENTER": 134.5255, "MEAN_ANOMALY": 226.6034, "EPHEMERIS_TYPE": 0, "CLASSIFICATION_TYPE": "U", "NORAD_CAT_ID": 32352, "ELEMENT_SET_NO": 999, "REV_AT_EPOCH": 65446, "BSTAR": 0.00020280465, "MEAN_MOTION_DOT": 6.69e-06, "MEAN_MOTION_DDOT": 0}, "tle": {"line1": "1 32352U 99025CYV 25359.01142437  .00000669  00000+0  20280-3 0  9991", "line2": "2 32352  98.7798 279.3585 0122668 134.5255 226.6034 14.41437454654469"}}, "geometry": {"type": "Point", "coordinates": [-78.40930637715186, -9.745155812202135]}}, {"type": "Feature", "properties": {"norad_id": 32353, "name": "FENGYUN 1C DEB", "group": "fengyun-1c-debris", "lat": -32.383720737697686, "lon": -9.772066119716706, "alt_km": 827.0243924186516, "timestamp": "2025-12-25T16:53:14.949842+00:00", "meta": {"OBJECT_NAME": "FENGYUN 1C DEB", "OBJECT_ID": "1999-025CYW", "EPOCH": "2025-12-24T05:40:29.330112", "MEAN_MOTION": 14.03902083, "ECCENTRICITY": 0.01243796, "INCLINATION": 98.9207, "RA_OF_ASC_NODE": 174.5047, "ARG_OF_PERICENTER": 167.3058, "MEAN_ANOMALY": 193.129, "EPHEMERIS_TYPE": 0, "CLASSIFICATION_TYPE": "U", "NORAD_CAT_ID": 32353, "ELEMENT_SET_NO": 999, "REV_AT_EPOCH": 63355, "BSTAR": 0.0025490541, "MEAN_MOTION_DOT": 4.268e-05, "MEAN_MOTION_DDOT": 0}, "tle": {"line1": "1 32353U 99025CYW 25358.23645058  .00004268  00000+0  25491-2 0  9999", "line2": "2 32353  98.9207 174.5047 0124379 167.3058 193.1290 14.03902083633554"}}, "geometry": {"type": "Point", "coordinates": [-9.772066119716706, -32.383720737697686]}}, {"type": "Feature", "properties": {"norad_id": 32355, "name": "FENGYUN 1C DEB", "group": "fengyun-1c-debris", "lat": -8.529588463410482, "lon": -64.64519855248068, "alt_km": 408.0002228994954, "timestamp": "2025-12-25T16:53:14.949851+00:00", "meta": {"OBJECT_NAME": "FENGYUN 1C DEB", "OBJECT_ID": "1999-025CYY", "EPOCH": "2025-12-20T14:58:00.151104", "MEAN_MOTION": 15.46351214, "ECCENTRICITY": 0.0028321, "INCLINATION": 100.3409, "RA_OF_ASC_NODE": 286.5316, "ARG_OF_PERICENTER": 70.0985, "MEAN_ANOMALY": 54.5123, "EPHEMERIS_TYPE": 0, "CLASSIFICATION_TYPE": "U", "NORAD_CAT_ID": 32355, "ELEMENT_SET_NO": 999, "REV_AT_EPOCH": 65112, "BSTAR": 0.008971, "MEAN_MOTION_DOT": 0.00476436, "MEAN_MOTION_DDOT": 0}, "tle": {"line1": "1 32355U 99025CYY 25354.62361286  .00476436  00000+0  89710-2 0  9992", "line2": "2 32355 100.3409 286.5316 0028321  70.0985  54.5123 15.46351214651120"}}, "geometry": {"type": "Point", "coordinates": [-64.64519855248068, -8.529588463410482]}}, {"type": "Feature", "properties": {"norad_id": 32356, "name": "FENGYUN 1C DEB", "group": "fengyun-1c-debris", "lat": 29.10006214215112, "lon": -140.36275117006488, "alt_km": 815.3354305458997, "timestamp": "2025-12-25T16:53:14.949862+00:00", "meta": {"OBJECT_NAME": "FENGYUN 1C DEB", "OBJECT_ID": "1999-025CYZ", "EPOCH": "2025-12-22T20:18:51.506208", "MEAN_MOTION": 14.03451299, "ECCENTRICITY": 0.01261583, "INCLINATION": 102.4963, "RA_OF_ASC_NODE": 222.8166, "ARG_OF_PERICENTER": 351.4659, "MEAN_ANOMALY": 8.4349, "EPHEMERIS_TYPE": 0, "CLASSIFICATION_TYPE": "U", "NORAD_CAT_ID": 32356, "ELEMENT_SET_NO": 999, "REV_AT_EPOCH": 68529, "BSTAR": 0.0023312729, "MEAN_MOTION_DOT": 3.845e-05, "MEAN_MOTION_DDOT": 0}, "tle": {"line1": "1 32356U 99025CYZ 25356.84642947  .00003845  00000+0  23313-2 0  9992", "line2": "2 32356 102.4963 222.8166 0126158 351.4659   8.4349 14.03451299685295"}}, "geometry": {"type": "Point", "coordinates": [-140.36275117006488, 29.10006214215112]}}, {"type": "Feature", "properties": {"norad_id": 32357, "name": "FENGYUN 1C DEB", "group": "fengyun-1c-debris", "lat": 37.50277456619792, "lon": 31.171433125418748, "alt_km": 1139.8375263039516, "timestamp": "2025-12-25T16:53:14.949872+00:00", "meta": {"OBJECT_NAME": "FENGYUN 1C DEB", "OBJECT_ID": "1999-025CZA", "EPOCH": "2025-12-13T21:20:47.666112", "MEAN_MOTION": 13.68708108, "ECCENTRICITY": 0.04907347, "INCLINATION": 98.8577, "RA_OF_ASC_NODE": 27.1403, "ARG_OF_PERICENTER": 184.5127, "MEAN_ANOMALY": 353.61, "EPHEMERIS_TYPE": 0, "CLASSIFICATION_TYPE": "U", "NORAD_CAT_ID": 32357, "ELEMENT_SET_NO": 999, "REV_AT_EPOCH": 66803, "BSTAR": 0.0036548407, "MEAN_MOTION_DOT": 7.308e-05, "MEAN_MOTION_DDOT": 0}, "tle": {"line1": "1 32357U 99025CZA 25347.88944058  .00007308  00000+0  36548-2 0  9997", "line2": "2 32357  98.8577  27.1403 0490734 184.5127 353.6100 13.68708108668031"}}, "geometry": {"type": "Point", "coordinates": [31.171433125418748, 37.50277456619792]}}, {"type": "Feature", "properties": {"norad_id": 32360, "name": "FENGYUN 1C DEB", "group": "fengyun-1c-debris", "lat": -62.91140444908135, "lon": -20.713279103749347, "alt_km": 754.7371093425936, "timestamp": "2025-12-25T16:53:14.949882+00:00", "meta": {"OBJECT_NAME": "FENGYUN 1C DEB", "OBJECT_ID": "1999-025CZD", "EPOCH": "2025-12-24T07:04:44.070528", "MEAN_MOTION": 13.98404862, "ECCENTRICITY": 0.02334639, "INCLINATION": 98.1032, "RA_OF_ASC_NODE": 174.2135, "ARG_OF_PERICENTER": 275.3665, "MEAN_ANOMALY": 82.0908, "EPHEMERIS_TYPE": 0, "CLASSIFICATION_TYPE": "U", "NORAD_CAT_ID": 32360, "ELEMENT_SET_NO": 999, "REV_AT_EPOCH": 64978, "BSTAR": 0.0029400127, "MEAN_MOTION_DOT": 5.27e-05, "MEAN_MOTION_DDOT": 0}, "tle": {"line1": "1 32360U 99025CZD 25358.29495452  .00005270  00000+0  29400-2 0  9992", "line2": "2 32360  98.1032 174.2135 0233463 275.3665  82.0908 13.98404862649783"}}, "geometry": {"type": "Point", "coordinates": [-20.713279103749347, -62.91140444908135]}}, {"type": "Feature", "properties": {"norad_id": 32361, "name": "FENGYUN 1C DEB", "group": "fengyun-1c-debris", "lat": -14.039061420832274, "lon": -122.90595635444849, "alt_km": 758.0597933125073, "timestamp": "2025-12-25T16:53:14.949892+00:00", "meta": {"OBJECT_NAME": "FENGYUN 1C DEB", "OBJECT_ID": "1999-025CZE", "EPOCH": "2025-12-24T03:35:29.284800", "MEAN_MOTION": 14.51199424, "ECCENTRICITY": 0.00453947, "INCLINATION": 98.8592, "RA_OF_ASC_NODE": 57.693, "ARG_OF_PERICENTER": 9.6539, "MEAN_ANOMALY": 350.5516, "EPHEMERIS_TYPE": 0, "CLASSIFICATION_TYPE": "U", "NORAD_CAT_ID": 32361, "ELEMENT_SET_NO": 999, "REV_AT_EPOCH": 96510, "BSTAR": 0.001878622, "MEAN_MOTION_DOT": 7.518e-05, "MEAN_MOTION_DDOT": 0}, "tle": {"line1": "1 32361U 99025CZE 25358.14964450  .00007518  00000+0  18786-2 0  9998", "line2": "2 32361  98.8592  57.6930 0045394   9.6539 350.5516 14.51199424965101"}}, "geometry": {"type": "Point", "coordinates": [-122.90595635444849, -14.039061420832274]}}, {"type": "Feature", "properties": {"norad_id": 32362, "name": "FENGYUN 1C DEB", "group": "fengyun-1c-debris", "lat": 18.68136052044504, "lon": 154.45061701270478, "alt_km": 1016.6797963100535, "timestamp": "2025-12-25T16:53:14.949902+00:00", "meta": {"OBJECT_NAME": "FENGYUN 1C DEB", "OBJECT_ID": "1999-025CZF", "EPOCH": "2025-12-24T04:53:41.858880", "MEAN_MOTION": 13.65242821, "ECCENTRICITY": 0.02730649, "INCLINATION": 99.8463, "RA_OF_ASC_NODE": 329.5614, "ARG_OF_PERICENTER": 256.2652, "MEAN_ANOMALY": 100.796, "EPHEMERIS_TYPE": 0, "CLASSIFICATION_TYPE": "U", "NORAD_CAT_ID": 32362, "ELEMENT_SET_NO": 999, "REV_AT_EPOCH": 91286, "BSTAR": 0.0020919161, "MEAN_MOTION_DOT": 2.144e-05, "MEAN_MOTION_DDOT": 0}, "tle": {"line1": "1 32362U 99025CZF 25358.20395670  .00002144  00000+0  20919-2 0  9999", "line2": "2 32362  99.8463 329.5614 0273064 256.2652 100.7960 13.65242821912860"}}, "geometry": {"type": "Point", "coordinates": [154.45061701270478, 18.68136052044504]}}, {"type": "Feature", "properties": {"norad_id": 32363, "name": "FENGYUN 1C DEB", "group": "fengyun-1c-debris", "lat": 4.006661648743015, "lon": 140.2488741421154, "alt_km": 412.1019267023794, "timestamp": "2025-12-25T16:53:14.949912+00:00", "meta": {"OBJECT_NAME": "FENGYUN 1C DEB", "OBJECT_ID": "1999-025CZG", "EPOCH": "2025-12-17T08:09:57.409920", "MEAN_MOTION": 15.48534366, "ECCENTRICITY": 0.00638192, "INCLINATION": 98.3303, "RA_OF_ASC_NODE": 310.0138, "ARG_OF_PERICENTER": 125.2276, "MEAN_ANOMALY": 235.4969, "EPHEMERIS_TYPE": 0, "CLASSIFICATION_TYPE": "U", "NORAD_CAT_ID": 32363, "ELEMENT_SET_NO": 999, "REV_AT_EPOCH": 96879, "BSTAR": 0.0013930297, "MEAN_MOTION_DOT": 0.00081044, "MEAN_MOTION_DDOT": 0}, "tle": {"line1": "1 32363U 99025CZG 25351.34024780  .00081044  00000+0  13930-2 0  9990", "line2": "2 32363  98.3303 310.0138 0063819 125.2276 235.4969 15.48534366968795"}}, "geometry": {"type": "Point", "coordinates": [140.2488741421154, 4.006661648743015]}}, {"type": "Feature", "properties": {"norad_id": 32364, "name": "FENGYUN 1C DEB", "group": "fengyun-1c-debris", "lat": -78.42507123287157, "lon": -27.668719482265775, "alt_km": 891.4128263859739, "timestamp": "2025-12-25T16:53:14.949922+00:00", "meta": {"OBJECT_NAME": "FENGYUN 1C DEB", "OBJECT_ID": "1999-025CZH", "EPOCH": "2025-11-29T08:05:37.624992", "MEAN_MOTION": 14.14317962, "ECCENTRICITY": 0.01349396, "INCLINATION": 98.2918, "RA_OF_ASC_NODE": 173.2369, "ARG_OF_PERICENTER": 222.8285, "MEAN_ANOMALY": 136.2316, "EPHEMERIS_TYPE": 0, "CLASSIFICATION_TYPE": "U", "NORAD_CAT_ID": 32364, "ELEMENT_SET_NO": 999, "REV_AT_EPOCH": 63519, "BSTAR": 0.0022712328, "MEAN_MOTION_DOT": 4.699e-05, "MEAN_MOTION_DDOT": 0}, "tle": {"line1": "1 32364U 99025CZH 25333.33724103  .00004699  00000+0  22712-2 0  9995", "line2": "2 32364  98.2918 173.2369 0134939 222.8285 136.2316 14.14317962635190"}}, "geometry": {"type": "Point", "coordinates": [-27.668719482265775, -78.42507123287157]}}]}